NORAD_CAT_ID,OBJECT_NAME,OBJECT_TYPE,EPOCH,MEAN_MOTION,ECCENTRICITY,INCLINATION,RA_OF_ASC_NODE,ARG_OF_PERICENTER,MEAN_ANOMALY,BSTAR,MEAN_MOTION_DOT,MEAN_MOTION_DDOT,TLE_LINE0,TLE_LINE1,TLE_LINE2,SEMIMAJOR_AXIS,PERIOD,APOGEE,PERIGEE,DECAYED
54005.0,STARLINK-5135,PAYLOAD,2024-05-29 14:01:40,15.08833653,0.0001239,53.2155,247.7877,88.2668,271.8466,-5.391e-05,-1.146e-05,0.0,0 STARLINK-5135,1 54005U 22125AT  24150.58449807 -.00001146  00000-0 -53910-4 0  9999,2 54005  53.2155 247.7877 0001239  88.2668 271.8466 15.08833653 91479,6917.9,95.438,540.622,538.908,0.0
54005.0,STARLINK-5135,PAYLOAD,2024-05-30 12:17:04,15.08850399,0.0001234,53.215,243.6241,83.5849,276.5284,0.00020897,3.04e-05,0.0,0 STARLINK-5135,1 54005U 22125AT  24151.51185340  .00003040  00000-0  20897-3 0  9992,2 54005  53.2150 243.6241 0001234  83.5849 276.5284 15.08850399 91665,6917.849,95.437,540.567,538.86,0.0
54005.0,STARLINK-5135,PAYLOAD,2024-05-30 13:52:27,15.08855881,0.0001437,53.2157,243.3284,90.9451,269.1706,0.00025763,3.816e-05,0.0,0 STARLINK-5135,1 54005U 22125AT  24151.57809135  .00003816  00000-0  25763-3 0  9991,2 54005  53.2157 243.3284 0001437  90.9451 269.1706 15.08855881 91626,6917.832,95.437,540.691,538.703,0.0
54005.0,STARLINK-5135,PAYLOAD,2024-05-31 12:07:51,15.08855845,0.0001224,53.2155,239.1668,99.8334,260.2797,0.00043467,6.64e-05,0.0,0 STARLINK-5135,1 54005U 22125AT  24152.50545198  .00006640  00000-0  43467-3 0  9990,2 54005  53.2155 239.1668 0001224  99.8334 260.2797 15.08855845 91818,6917.832,95.437,540.544,538.85,0.0
54005.0,STARLINK-5135,PAYLOAD,2024-05-31 23:15:32,15.08850065,0.0001218,53.2144,237.0844,96.8553,263.2577,0.00022402,3.28e-05,0.0,0 STARLINK-5135,1 54005U 22125AT  24152.96913112  .00003280  00000-0  22402-3 0  9998,2 54005  53.2144 237.0844 0001218  96.8553 263.2577 15.08850065 91887,6917.85,95.437,540.557,538.872,0.0
54005.0,STARLINK-5135,PAYLOAD,2024-06-01 11:58:38,15.08846611,0.00015,53.2166,234.7051,95.8624,264.2539,-2.7465e-05,-7.25e-06,0.0,0 STARLINK-5135,1 54005U 22125AT  24153.49905184 -.00000725  00000-0 -27465-4 0  9995,2 54005  53.2166 234.7051 0001500  95.8624 264.2539 15.08846611 91912,6917.86,95.437,540.763,538.688,0.0
54005.0,STARLINK-5135,PAYLOAD,2024-06-01 15:09:24,15.08847608,0.0001612,53.2169,234.1098,98.3355,261.7819,1.3517e-05,-7.3e-07,0.0,0 STARLINK-5135,1 54005U 22125AT  24153.63153128 -.00000073  00000-0  13517-4 0  9992,2 54005  53.2169 234.1098 0001612  98.3355 261.7819 15.08847608 91980,6917.857,95.437,540.837,538.607,0.0
54005.0,STARLINK-5135,PAYLOAD,2024-06-02 05:27:52,15.08836284,0.0001449,53.2169,231.4327,101.8796,258.2359,9.9547e-05,1.297e-05,0.0,0 STARLINK-5135,1 54005U 22125AT  24154.22769649  .00001297  00000-0  99547-4 0  9994,2 54005  53.2169 231.4327 0001449 101.8796 258.2359 15.08836284 92071,6917.892,95.438,540.759,538.754,0.0
54005.0,STARLINK-5135,PAYLOAD,2024-06-02 11:49:25,15.08842869,0.0001455,53.2159,230.2448,96.1047,264.0111,3.5616e-05,2.79e-06,0.0,0 STARLINK-5135,1 54005U 22125AT  24154.49265350  .00000279  00000-0  35616-4 0  9999,2 54005  53.2159 230.2448 0001455  96.1047 264.0111 15.08842869 92069,6917.872,95.437,540.743,538.73,0.0
54005.0,STARLINK-5135,PAYLOAD,2024-06-03 11:40:12,15.08840623,0.0001391,53.216,225.7879,88.9577,271.1574,0.00014655,2.045e-05,0.0,0 STARLINK-5135,1 54005U 22125AT  24155.48625571  .00002045  00000-0  14655-3 0  9996,2 54005  53.2160 225.7879 0001391  88.9577 271.1574 15.08840623 92264,6917.878,95.438,540.706,538.781,0.0
54005.0,STARLINK-5135,PAYLOAD,2024-06-03 21:12:31,15.08844323,0.0001327,53.2152,224.0032,89.4316,270.6829,5.9181e-05,6.54e-06,0.0,0 STARLINK-5135,1 54005U 22125AT  24155.88369500  .00000654  00000-0  59181-4 0  9995,2 54005  53.2152 224.0032 0001327  89.4316 270.6829 15.08844323 92273,6917.867,95.437,540.65,538.814,0.0
54005.0,STARLINK-5135,PAYLOAD,2024-06-04 11:30:59,15.08848089,0.0001376,53.2155,221.327,91.3352,268.7798,0.0002159,3.151e-05,0.0,0 STARLINK-5135,1 54005U 22125AT  24156.47985252  .00003151  00000-0  21590-3 0  9996,2 54005  53.2155 221.3270 0001376  91.3352 268.7798 15.08848089 92362,6917.856,95.437,540.673,538.769,0.0
54005.0,STARLINK-5135,PAYLOAD,2024-06-04 21:03:18,15.08842931,0.0001333,53.2143,219.5412,92.1489,267.9656,9.6554e-05,1.249e-05,0.0,0 STARLINK-5135,1 54005U 22125AT  24156.87729355  .00001249  00000-0  96554-4 0  9999,2 54005  53.2143 219.5412 0001333  92.1489 267.9656 15.08842931 92420,6917.871,95.437,540.659,538.814,0.0
54005.0,STARLINK-5135,PAYLOAD,2024-06-05 05:00:14,15.08837544,0.0001567,53.2153,218.0556,97.1259,262.9911,-2.6458e-07,-2.92e-06,0.0,0 STARLINK-5135,1 54005U 22125AT  24157.20849665 -.00000292  00000-0 -26458-6 0  9991,2 54005  53.2153 218.0556 0001567  97.1259 262.9911 15.08837544 92527,6917.888,95.438,540.837,538.669,0.0
54005.0,STARLINK-5135,PAYLOAD,2024-06-05 11:21:46,15.08840728,0.0001488,53.2168,216.8658,96.4958,263.6203,8.2526e-05,1.026e-05,0.0,0 STARLINK-5135,1 54005U 22125AT  24157.47345725  .00001026  00000-0  82526-4 0  9998,2 54005  53.2168 216.8658 0001488  96.4958 263.6203 15.08840728 92511,6917.878,95.438,540.773,538.714,0.0
54005.0,STARLINK-5135,PAYLOAD,2024-06-05 20:54:05,15.08840226,0.0001425,53.2163,215.0796,84.4184,275.6971,5.4782e-05,5.84e-06,0.0,0 STARLINK-5135,1 54005U 22125AT  24157.87089806  .00000584  00000-0  54782-4 0  9998,2 54005  53.2163 215.0796 0001425  84.4184 275.6971 15.08840226 92573,6917.88,95.438,540.73,538.759,0.0
54005.0,STARLINK-5135,PAYLOAD,2024-06-06 11:12:34,15.08835922,0.000133,53.2157,212.4045,90.827,269.2875,-3.9698e-05,-9.2e-06,0.0,0 STARLINK-5135,1 54005U 22125AT  24158.46706498 -.00000920  00000-0 -39698-4 0  9992,2 54005  53.2157 212.4045 0001330  90.8270 269.2875 15.08835922 92711,6917.893,95.438,540.678,538.838,0.0
54005.0,STARLINK-5135,PAYLOAD,2024-06-07 09:27:58,15.08834504,0.0001385,53.2165,208.2413,92.7101,267.4049,0.00027603,4.107e-05,0.0,0 STARLINK-5135,1 54005U 22125AT  24159.39442187  .00004107  00000-0  27603-3 0  9998,2 54005  53.2165 208.2413 0001385  92.7101 267.4049 15.08834504 92804,6917.897,95.438,540.72,538.804,0.0
54005.0,STARLINK-5135,PAYLOAD,2024-06-07 20:35:39,15.08846869,0.0001407,53.2158,206.16,86.8231,273.2922,0.00013417,1.848e-05,0.0,0 STARLINK-5135,1 54005U 22125AT  24159.85809552  .00001848  00000-0  13417-3 0  9999,2 54005  53.2158 206.1600 0001407  86.8231 273.2922 15.08846869 92929,6917.859,95.437,540.698,538.751,0.0
54005.0,STARLINK-5135,PAYLOAD,2024-06-08 09:18:44,15.08847606,0.0001321,53.2138,203.7798,91.3277,268.7867,0.00029778,4.455e-05,0.0,0 STARLINK-5135,1 54005U 22125AT  24160.38801689  .00004455  00000-0  29778-3 0  9996,2 54005  53.2138 203.7798 0001321  91.3277 268.7867 15.08847606 92954,6917.857,95.437,540.636,538.808,0.0
54005.0,STARLINK-5135,PAYLOAD,2024-06-08 20:26:26,15.08845062,0.0001215,53.2131,201.6983,91.4799,268.6332,0.00011568,1.554e-05,0.0,0 STARLINK-5135,1 54005U 22125AT  24160.85169634  .00001554  00000-0  11568-3 0  9990,2 54005  53.2131 201.6983 0001215  91.4799 268.6332 15.08845062 93076,6917.865,95.437,540.57,538.889,0.0
54005.0,STARLINK-5135,PAYLOAD,2024-06-09 12:20:18,15.08836815,0.0001443,53.2156,198.7236,106.6992,253.4159,-1.6538e-05,-5.51e-06,0.0,0 STARLINK-5135,1 54005U 22125AT  24161.51410555 -.00000551  00000-0 -16538-4 0  9996,2 54005  53.2156 198.7236 0001443 106.6992 253.4159 15.08836815 93173,6917.89,95.438,540.753,538.757,0.0
54005.0,STARLINK-5135,PAYLOAD,2024-06-10 09:00:18,15.08844901,0.0001278,53.2158,194.8591,98.8688,261.2449,8.3965e-05,1.049e-05,0.0,0 STARLINK-5135,1 54005U 22125AT  24162.37521865  .00001049  00000-0  83965-4 0  9997,2 54005  53.2158 194.8591 0001278  98.8688 261.2449 15.08844901 93305,6917.865,95.437,540.615,538.846,0.0
54005.0,STARLINK-5135,PAYLOAD,2024-06-11 02:29:34,15.08834831,0.0001376,53.2151,191.5885,100.6761,259.4386,0.00016714,2.373e-05,0.0,0 STARLINK-5135,1 54005U 22125AT  24163.10386667  .00002373  00000-0  16714-3 0  9996,2 54005  53.2151 191.5885 0001376 100.6761 259.4386 15.08834831 93413,6917.896,95.438,540.713,538.809,0.0
54005.0,STARLINK-5135,PAYLOAD,2024-06-11 08:51:06,15.08835251,0.0001345,53.2149,190.3995,99.5228,260.5916,0.00014581,2.033e-05,0.0,0 STARLINK-5135,1 54005U 22125AT  24163.36882749  .00002033  00000-0  14581-3 0  9999,2 54005  53.2149 190.3995 0001345  99.5228 260.5916 15.08835251 93407,6917.895,95.438,540.69,538.829,0.0
54005.0,STARLINK-5135,PAYLOAD,2024-06-12 05:31:07,15.08842742,0.0001274,53.2145,186.5333,97.991,262.1227,9.291e-05,1.191e-05,0.0,0 STARLINK-5135,1 54005U 22125AT  24164.22994365  .00001191  00000-0  92910-4 0  9990,2 54005  53.2145 186.5333 0001274  97.9910 262.1227 15.08842742 93537,6917.872,95.437,540.618,538.856,0.0
54005.0,STARLINK-5135,PAYLOAD,2024-06-12 08:41:53,15.08843071,0.0001271,53.2145,185.9385,97.6068,262.5068,9.0798e-05,1.158e-05,0.0,0 STARLINK-5135,1 54005U 22125AT  24164.36242320  .00001158  00000-0  90798-4 0  9997,2 54005  53.2145 185.9385 0001271  97.6068 262.5068 15.08843071 93606,6917.871,95.437,540.615,538.857,0.0
54005.0,STARLINK-5135,PAYLOAD,2024-06-12 18:14:12,15.08840514,0.0001201,53.215,184.1538,96.2374,263.8755,0.00010144,1.327e-05,0.0,0 STARLINK-5135,1 54005U 22125AT  24164.75986533  .00001327  00000-0  10144-3 0  9995,2 54005  53.2150 184.1538 0001201  96.2374 263.8755 15.08840514 93618,6917.879,95.438,540.575,538.913,0.0
54005.0,STARLINK-5135,PAYLOAD,2024-06-13 05:21:54,15.08833389,0.0001289,53.2159,182.0728,94.6625,265.4514,6.319e-05,7.18e-06,0.0,0 STARLINK-5135,1 54005U 22125AT  24165.22355240  .00000718  00000-0  63190-4 0  9996,2 54005  53.2159 182.0728 0001289  94.6625 265.4514 15.08833389 93738,6917.901,95.438,540.657,538.874,0.0
54005.0,STARLINK-5135,PAYLOAD,2024-06-13 11:43:27,15.08835564,0.0001304,53.2158,180.8834,94.1536,265.9605,6.9185e-05,8.13e-06,0.0,0 STARLINK-5135,1 54005U 22125AT  24165.48851107  .00000813  00000-0  69185-4 0  9993,2 54005  53.2158 180.8834 0001304  94.1536 265.9605 15.08835564 93727,6917.894,95.438,540.661,538.857,0.0
